HIMAWARI-8              
1 40267U 14060A   23248.51638216 -.00000287  00000+0  00000+0 0  9997
2 40267   0.0337 273.7058 0000821 263.3977 133.7950  1.00271557 32577
